start=new Date('2021-09-16T00:00:00.000Z').valueOf();
sats=[{"NORAD_CAT_ID":"48565","TIME_SYSTEM":"UTC","MEAN_MOTION":"15.06382601","INCLINATION":"53.0569","FILE":"3116597","EPOCH":"2021-09-15T18:34:39.253152","EPHEMERIS_TYPE":"0","PERIAPSIS":"547.088","REF_FRAME":"TEME","GP_ID":"184789819","MEAN_ANOMALY":"269.6734","MEAN_MOTION_DOT":"0.00000942","MEAN_ELEMENT_THEORY":"SGP4","ARG_OF_PERICENTER":"90.4284","ELEMENT_SET_NO":"999","BSTAR":"0.00008211200000","COUNTRY_CODE":"US","TLE_LINE1":"1 48565U 21041N   21258.77406543  .00000942  00000-0  82112-4 0  9993","PERIOD":"95.593","APOAPSIS":"547.446","RCS_SIZE":"LARGE","ECCENTRICITY":"0.00002590","RA_OF_ASC_NODE":"275.5205","LAUNCH_DATE":"2021-05-15","CLASSIFICATION_TYPE":"U","OBJECT_NAME":"STARLINK-2191","SITE":"AFETR","CENTER_NAME":"EARTH","TLE_LINE2":"2 48565  53.0569 275.5205 0000259  90.4284 269.6734 15.06382601 18634","REV_AT_EPOCH":"1863","SEMIMAJOR_AXIS":"6925.402","DECAY_DATE":null,"OBJECT_ID":"2021-041N","MEAN_MOTION_DDOT":"0.0000000000000","OBJECT_TYPE":"PAYLOAD"},{"TLE_LINE2":"2 48566  53.0548 285.4166 0000656  99.4551 260.6512 15.06398359 18491","SITE":"AFETR","CENTER_NAME":"EARTH","REV_AT_EPOCH":"1849","SEMIMAJOR_AXIS":"6925.354","RA_OF_ASC_NODE":"285.4166","LAUNCH_DATE":"2021-05-15","ECCENTRICITY":"0.00006560","OBJECT_NAME":"STARLINK-2214","CLASSIFICATION_TYPE":"U","OBJECT_TYPE":"PAYLOAD","MEAN_MOTION_DDOT":"0.0000000000000","OBJECT_ID":"2021-041P","DECAY_DATE":null,"MEAN_ANOMALY":"260.6512","GP_ID":"184789727","REF_FRAME":"TEME","EPHEMERIS_TYPE":"0","PERIAPSIS":"546.764","MEAN_MOTION_DOT":"0.00001034","MEAN_ELEMENT_THEORY":"SGP4","FILE":"3116597","MEAN_MOTION":"15.06398359","NORAD_CAT_ID":"48566","TIME_SYSTEM":"UTC","INCLINATION":"53.0548","EPOCH":"2021-09-15T19:09:05.830560","APOAPSIS":"547.673","RCS_SIZE":"LARGE","ELEMENT_SET_NO":"999","BSTAR":"0.00008830500000","ARG_OF_PERICENTER":"99.4551","TLE_LINE1":"1 48566U 21041P   21258.79798415  .00001034  00000-0  88305-4 0  9991","COUNTRY_CODE":"US","PERIOD":"95.592"},{"EPHEMERIS_TYPE":"0","PERIAPSIS":"546.783","MEAN_ANOMALY":"145.4096","GP_ID":"184789230","REF_FRAME":"TEME","MEAN_MOTION_DOT":"0.00035863","MEAN_ELEMENT_THEORY":"SGP4","MEAN_MOTION":"15.06374057","NORAD_CAT_ID":"48567","TIME_SYSTEM":"UTC","INCLINATION":"53.0533","FILE":"3116597","EPOCH":"2021-09-15T22:00:00.999936","APOAPSIS":"547.803","RCS_SIZE":"LARGE","ARG_OF_PERICENTER":"73.5410","ELEMENT_SET_NO":"999","BSTAR":"0.00241600000000","TLE_LINE1":"1 48567U 21041Q   21258.91667824  .00035863  00000-0  24160-2 0  9999","COUNTRY_CODE":"US","PERIOD":"95.594","SITE":"AFETR","CENTER_NAME":"EARTH","TLE_LINE2":"2 48567  53.0533 284.8807 0000736  73.5410 145.4096 15.06374057  3598","SEMIMAJOR_AXIS":"6925.428","REV_AT_EPOCH":"359","ECCENTRICITY":"0.00007360","RA_OF_ASC_NODE":"284.8807","LAUNCH_DATE":"2021-05-15","OBJECT_NAME":"STARLINK-2215","CLASSIFICATION_TYPE":"U","OBJECT_TYPE":"PAYLOAD","DECAY_DATE":null,"OBJECT_ID":"2021-041Q","MEAN_MOTION_DDOT":"0.0000000000000"},{"MEAN_MOTION_DDOT":"0.0000000000000","OBJECT_ID":"2021-041R","DECAY_DATE":null,"OBJECT_TYPE":"PAYLOAD","RA_OF_ASC_NODE":"275.6353","LAUNCH_DATE":"2021-05-15","ECCENTRICITY":"0.00007120","OBJECT_NAME":"STARLINK-2217","CLASSIFICATION_TYPE":"U","TLE_LINE2":"2 48568  53.0475 275.6353 0000712 139.0208 221.0835 15.06391838 18623","CENTER_NAME":"EARTH","SITE":"AFETR","REV_AT_EPOCH":"1862","SEMIMAJOR_AXIS":"6925.374","BSTAR":"-0.00001639100000","ELEMENT_SET_NO":"999","ARG_OF_PERICENTER":"139.0208","PERIOD":"95.593","TLE_LINE1":"1 48568U 21041R   21258.75562573 -.00000525  00000-0 -16391-4 0  9995","COUNTRY_CODE":"US","APOAPSIS":"547.732","RCS_SIZE":"LARGE","FILE":"3116597","INCLINATION":"53.0475","NORAD_CAT_ID":"48568","TIME_SYSTEM":"UTC","MEAN_MOTION":"15.06391838","EPOCH":"2021-09-15T18:08:06.063072","MEAN_ANOMALY":"221.0835","GP_ID":"184789637","REF_FRAME":"TEME","PERIAPSIS":"546.745","EPHEMERIS_TYPE":"0","MEAN_ELEMENT_THEORY":"SGP4","MEAN_MOTION_DOT":"-0.00000525"},{"OBJECT_NAME":"STARLINK-2219","CLASSIFICATION_TYPE":"U","LAUNCH_DATE":"2021-05-15","RA_OF_ASC_NODE":"275.4978","ECCENTRICITY":"0.00003020","REV_AT_EPOCH":"1863","SEMIMAJOR_AXIS":"6925.342","TLE_LINE2":"2 48569  53.0562 275.4978 0000302  88.2248 271.8775 15.06402159 18632","SITE":"AFETR","CENTER_NAME":"EARTH","MEAN_MOTION_DDOT":"0.0000000000000","DECAY_DATE":null,"OBJECT_ID":"2021-041S","OBJECT_TYPE":"PAYLOAD","EPOCH":"2021-09-15T18:45:14.212800","FILE":"3116597","NORAD_CAT_ID":"48569","MEAN_MOTION":"15.06402159","TIME_SYSTEM":"UTC","INCLINATION":"53.0562","MEAN_MOTION_DOT":"0.00001017","MEAN_ELEMENT_THEORY":"SGP4","GP_ID":"184789506","REF_FRAME":"TEME","MEAN_ANOMALY":"271.8775","EPHEMERIS_TYPE":"0","PERIAPSIS":"546.998","TLE_LINE1":"1 48569U 21041S   21258.78141450  .00001017  00000-0  87128-4 0  9997","PERIOD":"95.592","COUNTRY_CODE":"US","ELEMENT_SET_NO":"999","BSTAR":"0.00008712800000","ARG_OF_PERICENTER":"88.2248","RCS_SIZE":"LARGE","APOAPSIS":"547.416"},{"MEAN_MOTION_DDOT":"0.0000000000000","DECAY_DATE":null,"OBJECT_ID":"2021-041T","OBJECT_TYPE":"PAYLOAD","RA_OF_ASC_NODE":"284.8865","LAUNCH_DATE":"2021-05-15","ECCENTRICITY":"0.00004860","CLASSIFICATION_TYPE":"U","OBJECT_NAME":"STARLINK-2220","TLE_LINE2":"2 48570  53.0535 284.8865 0000486  66.7556  12.2408 15.06389304  3606","CENTER_NAME":"EARTH","SITE":"AFETR","SEMIMAJOR_AXIS":"6925.381","REV_AT_EPOCH":"360","BSTAR":"0.00247160000000","ELEMENT_SET_NO":"999","ARG_OF_PERICENTER":"66.7556","COUNTRY_CODE":"US","TLE_LINE1":"1 48570U 21041T   21258.91667824  .00036715  00000-0  24716-2 0  9997","PERIOD":"95.593","APOAPSIS":"547.583","RCS_SIZE":"LARGE","FILE":"3116597","INCLINATION":"53.0535","NORAD_CAT_ID":"48570","TIME_SYSTEM":"UTC","MEAN_MOTION":"15.06389304","EPOCH":"2021-09-15T22:00:00.999936","MEAN_ANOMALY":"12.2408","GP_ID":"184789413","REF_FRAME":"TEME","PERIAPSIS":"546.910","EPHEMERIS_TYPE":"0","MEAN_ELEMENT_THEORY":"SGP4","MEAN_MOTION_DOT":"0.00036715"},{"OBJECT_NAME":"STARLINK-2221","CLASSIFICATION_TYPE":"U","ECCENTRICITY":"0.00005640","LAUNCH_DATE":"2021-05-15","RA_OF_ASC_NODE":"285.5121","SEMIMAJOR_AXIS":"6925.379","REV_AT_EPOCH":"1849","SITE":"AFETR","CENTER_NAME":"EARTH","TLE_LINE2":"2 48571  53.0550 285.5121 0000564  81.6377 278.4676 15.06390087 18497","DECAY_DATE":null,"OBJECT_ID":"2021-041U","MEAN_MOTION_DDOT":"0.0000000000000","OBJECT_TYPE":"PAYLOAD","EPOCH":"2021-09-15T18:38:37.078656","NORAD_CAT_ID":"48571","MEAN_MOTION":"15.06390087","TIME_SYSTEM":"UTC","INCLINATION":"53.0550","FILE":"3116597","MEAN_MOTION_DOT":"-0.00000696","MEAN_ELEMENT_THEORY":"SGP4","EPHEMERIS_TYPE":"0","PERIAPSIS":"546.853","GP_ID":"184789545","MEAN_ANOMALY":"278.4676","REF_FRAME":"TEME","COUNTRY_CODE":"US","TLE_LINE1":"1 48571U 21041U   21258.77681804 -.00000696  00000-0 -27876-4 0  9999","PERIOD":"95.593","ARG_OF_PERICENTER":"81.6377","ELEMENT_SET_NO":"999","BSTAR":"-0.00002787600000","RCS_SIZE":"LARGE","APOAPSIS":"547.635"},{"MEAN_MOTION_DDOT":"0.0000000000000","DECAY_DATE":null,"OBJECT_ID":"2021-041V","OBJECT_TYPE":"PAYLOAD","RA_OF_ASC_NODE":"285.5237","LAUNCH_DATE":"2021-05-15","ECCENTRICITY":"0.00005450","CLASSIFICATION_TYPE":"U","OBJECT_NAME":"STARLINK-2222","TLE_LINE2":"2 48572  53.0548 285.5237 0000545  85.4913 274.6138 15.06397126 18492","CENTER_NAME":"EARTH","SITE":"AFETR","REV_AT_EPOCH":"1849","SEMIMAJOR_AXIS":"6925.357","BSTAR":"-0.00000521540000","ELEMENT_SET_NO":"999","ARG_OF_PERICENTER":"85.4913","PERIOD":"95.592","TLE_LINE1":"1 48572U 21041V   21258.77313195 -.00000359  00000-0 -52154-5 0  9999","COUNTRY_CODE":"US","APOAPSIS":"547.600","RCS_SIZE":"LARGE","FILE":"3116597","INCLINATION":"53.0548","NORAD_CAT_ID":"48572","TIME_SYSTEM":"UTC","MEAN_MOTION":"15.06397126","EPOCH":"2021-09-15T18:33:18.600480","GP_ID":"184789323","MEAN_ANOMALY":"274.6138","REF_FRAME":"TEME","PERIAPSIS":"546.845","EPHEMERIS_TYPE":"0","MEAN_ELEMENT_THEORY":"SGP4","MEAN_MOTION_DOT":"-0.00000359"},{"APOAPSIS":"547.429","RCS_SIZE":"LARGE","ARG_OF_PERICENTER":"95.5843","BSTAR":"-0.00001119700000","ELEMENT_SET_NO":"999","TLE_LINE1":"1 48573U 21041W   21258.75193595 -.00000448  00000-0 -11197-4 0  9998","COUNTRY_CODE":"US","PERIOD":"95.592","PERIAPSIS":"547.019","EPHEMERIS_TYPE":"0","REF_FRAME":"TEME","GP_ID":"184789820","MEAN_ANOMALY":"264.5180","MEAN_ELEMENT_THEORY":"SGP4","MEAN_MOTION_DOT":"-0.00000448","INCLINATION":"53.0473","NORAD_CAT_ID":"48573","MEAN_MOTION":"15.06396706","TIME_SYSTEM":"UTC","FILE":"3116597","EPOCH":"2021-09-15T18:02:47.266080","OBJECT_TYPE":"PAYLOAD","OBJECT_ID":"2021-041W","DECAY_DATE":null,"MEAN_MOTION_DDOT":"0.0000000000000","CENTER_NAME":"EARTH","SITE":"AFETR","TLE_LINE2":"2 48573  53.0473 275.6436 0000296  95.5843 264.5180 15.06396706 18621","SEMIMAJOR_AXIS":"6925.359","REV_AT_EPOCH":"1862","ECCENTRICITY":"0.00002960","LAUNCH_DATE":"2021-05-15","RA_OF_ASC_NODE":"275.6436","CLASSIFICATION_TYPE":"U","OBJECT_NAME":"STARLINK-2224"},{"OBJECT_TYPE":"PAYLOAD","MEAN_MOTION_DDOT":"0.0000000000000","OBJECT_ID":"2021-041X","DECAY_DATE":null,"REV_AT_EPOCH":"365","SEMIMAJOR_AXIS":"6817.878","TLE_LINE2":"2 48574  53.0528 255.4426 0002271  30.3620 123.1909 15.42158333  3651","SITE":"AFETR","CENTER_NAME":"EARTH","CLASSIFICATION_TYPE":"U","OBJECT_NAME":"STARLINK-2225","LAUNCH_DATE":"2021-05-15","RA_OF_ASC_NODE":"255.4426","ECCENTRICITY":"0.00022710","RCS_SIZE":"LARGE","APOAPSIS":"441.291","TLE_LINE1":"1 48574U 21041X   21258.91667824 -.00018900  00000-0 -42585-3 0  9994","COUNTRY_CODE":"US","PERIOD":"93.376","ELEMENT_SET_NO":"999","BSTAR":"-0.00042585000000","ARG_OF_PERICENTER":"30.3620","MEAN_MOTION_DOT":"-0.00018900","MEAN_ELEMENT_THEORY":"SGP4","GP_ID":"184789728","MEAN_ANOMALY":"123.1909","REF_FRAME":"TEME","EPHEMERIS_TYPE":"0","PERIAPSIS":"438.194","EPOCH":"2021-09-15T22:00:00.999936","FILE":"3116597","NORAD_CAT_ID":"48574","MEAN_MOTION":"15.42158333","TIME_SYSTEM":"UTC","INCLINATION":"53.0528"}];
